latitude,longitude,Codering,Naam,Indicator,elektriciteitsverbruik_huishoudens,gasverbruik_huishoudens,energielabel_woningen,zonnestroom,laadpalen,emissie_CO2,regio,POSTCODE,Cluster,Lon,Lat
51.6077409799,5.14506146653,WK085567,Udenhout,Wijk,2450,1090,1.74243520192887,0.35295893719806765,1.7957351290684624,2366.4284301606922,Udenhout,5071,1,5.14327529019087,51.5926838584799
51.57686669,5.13887286,WK085566,Berkel-Enschot,Wijk,2490,1130,1.7002157031924101,0.2371042727473987,1.2997562956945572,4661.6063886424135,Berkel-Enschot,5056,1,5.14327529019087,51.5926838584799
51.5878583,5.1465219,BU08556601,Bedrijventerrein Schepersven,Buurt,"","","","",0,"",Bedrijventerrein Schepersven,5056,1,5.14327529019087,51.5926838584799
51.5878583,5.1465219,BU08556603,Buitengebied B-E Noord-West,Buurt,"","",2.2078571428571401,0.625,0,"",Buitengebied B-E Noord-West,5056,1,5.14327529019087,51.5926838584799
51.5878583,5.1465219,BU08556604,Buitengebied B-E Noord-Oost,Buurt,"",2380,2.0220588235294099,"",0,"",Buitengebied B-E Noord-Oost,5056,1,5.14327529019087,51.5926838584799
51.5878583,5.1465219,BU08556605,Bedrijventerrein Rhijnkant,Buurt,"","",2.15405405405405,"",0,"",Bedrijventerrein Rhijnkant,5056,1,5.14327529019087,51.5926838584799
51.5878583,5.1465219,BU08556606,Berkel Noord,Buurt,2390,930,1.5086740331491699,0.21804511278195488,0,"",Berkel Noord,5056,1,5.14327529019087,51.5926838584799
51.5878583,5.1465219,BU08556607,Berkelse Akkers,Buurt,2410,940,1.3401234567901199,0.13636363636363635,0,"",Berkelse Akkers,5056,1,5.14327529019087,51.5926838584799
51.5878583,5.1465219,BU08556608,Ruiven,Buurt,2400,1310,1.7200671140939601,0.26051560379918587,0,"",Ruiven,5056,1,5.14327529019087,51.5926838584799
51.5878583,5.1465219,BU08556609,Eikenbosch,Buurt,2520,1610,1.9320232896652101,0.17079889807162535,0,"",Eikenbosch,5056,1,5.14327529019087,51.5926838584799
51.5878583,5.1465219,BU08556610,Koningsoord,Buurt,"","",1.2175213675213701,"",0,"",Koningsoord,5056,1,5.14327529019087,51.5926838584799
51.5878583,5.1465219,BU08556611,Rauwbraken,Buurt,2600,1110,1.8877005347593601,0.27041742286751363,2.7397260273972601,"",Rauwbraken,5056,1,5.14327529019087,51.5926838584799
51.5878583,5.1465219,BU08556612,Enschot Oost,Buurt,2380,1500,1.8490585774058601,0.25624999999999998,3.0303030303030303,"",Enschot Oost,5056,1,5.14327529019087,51.5926838584799
51.5878583,5.1465219,BU08556613,Enschot Midden,Buurt,2440,1270,1.71266490765172,0.29295774647887324,3.7037037037037033,"",Enschot Midden,5056,1,5.14327529019087,51.5926838584799
51.5878583,5.1465219,BU08556614,Enschotse Akkers,Buurt,2490,920,0.99772727272727302,0.25362318840579712,0,"",Enschotse Akkers,5056,1,5.14327529019087,51.5926838584799
51.5878583,5.1465219,BU08556615,Bedrijventerrein Enschot,Buurt,"","",2.36,"",0,"",Bedrijventerrein Enschot,5056,1,5.14327529019087,51.5926838584799
51.5878583,5.1465219,BU08556617,Enschot Zuid,Buurt,"","",2.31222222222222,0.95,0,"",Enschot Zuid,5056,1,5.14327529019087,51.5926838584799
51.5878583,5.1465219,BU08556618,Buitengebied B-E Zuid-West,Buurt,"","",2.3222222222222202,"",0,"",Buitengebied B-E Zuid-West,5056,1,5.14327529019087,51.5926838584799
51.5878583,5.1465219,BU08556620,Buitengebied B-E Zuid,Buurt,"","",2.06153846153846,"",133.33333333333334,"",Buitengebied B-E Zuid,5056,1,5.14327529019087,51.5926838584799
51.6108261,5.1439299,BU08556701,Groenstraat,Buurt,"","",2.15660377358491,0.15853658536585366,17.391304347826086,"",Groenstraat,5071,1,5.14327529019087,51.5926838584799
51.6108261,5.1439299,BU08556702,Achthoeven,Buurt,2820,1110,1.89462989840348,0.33430232558139533,1.1111111111111112,"",Achthoeven,5071,1,5.14327529019087,51.5926838584799
51.6108261,5.1439299,BU08556703,Den Bogerd,Buurt,"","",1.08717948717949,"",0,"",Den Bogerd,5071,1,5.14327529019087,51.5926838584799
51.6108261,5.1439299,BU08556704,De Mortel,Buurt,2210,880,1.3273413897280999,0.40625,4.5977011494252871,"",De Mortel,5071,1,5.14327529019087,51.5926838584799
51.6108261,5.1439299,BU08556705,De Kuil,Buurt,2260,990,1.5079161028416801,0.26946847960444992,3.6363636363636367,"",De Kuil,5071,1,5.14327529019087,51.5926838584799
51.6108261,5.1439299,BU08556706,Zeshoeven,Buurt,2470,1160,1.86614906832298,0.34461805555555558,0,"",Zeshoeven,5071,1,5.14327529019087,51.5926838584799
51.6108261,5.1439299,BU08556707,Bedrijventerrein Kreitenmolen,Buurt,3240,1980,1.98806818181818,0.30864197530864196,0,"",Bedrijventerrein Kreitenmolen,5071,1,5.14327529019087,51.5926838584799
51.6108261,5.1439299,BU08556708,Buitengebied Udenhout Zuid-Oost,Buurt,"","",2.2578947368421098,1.9,0,"",Buitengebied Udenhout Zuid-Oost,5071,1,5.14327529019087,51.5926838584799
51.6108261,5.1439299,BU08556709,Buitengebied Udenhout Zuid-West,Buurt,"","",1.9089887640449399,0.51515151515151514,0,"",Buitengebied Udenhout Zuid-West,5071,1,5.14327529019087,51.5926838584799
51.6108261,5.1439299,BU08556710,Buitengebied Udenhout Noord,Buurt,"","",2.2123809523809501,0.92391304347826086,0,"",Buitengebied Udenhout Noord,5071,1,5.14327529019087,51.5926838584799
51.5693976254,5.06332465047,WK085538,Het Zand,Wijk,2060,880,1.94607396149949,6.6643940685188335E-2,2.2396416573348263,2417.6242671009772,Het Zand,5042,2,5.06349826967424,51.5858011995132
51.5893356925,5.07868519157,WK085542,Stokhasselt,Wijk,2310,220,1.6635345997286299,7.5773020727149171E-2,0.76190476190476186,1115.6287794729542,Stokhasselt,5049,2,5.06349826967424,51.5858011995132
51.58852215,5.054086327,WK085559,Bedrijventerrein Kraaiven,Wijk,"","",1.9,"",0.32336297493936944,318100.92499999999,Bedrijventerrein Kraaiven,5048,2,5.06349826967424,51.5858011995132
51.5720295,5.0572171,BU08553801,Tweestedenziekenhuis,Buurt,"",500,2.4300000000000002,"",44.444444444444443,"",Tweestedenziekenhuis,5042,2,5.06349826967424,51.5858011995132
51.5720295,5.0572171,BU08553802,Het Zand Noord-West,Buurt,1720,240,1.94506472491909,4.930662557781202E-2,4.2105263157894735,"",Het Zand Noord-West,5042,2,5.06349826967424,51.5858011995132
51.5720295,5.0572171,BU08553803,Het Zand Noord-Oost,Buurt,2180,930,2.1547154471544698,4.3749999999999997E-2,0,"",Het Zand Noord-Oost,5042,2,5.06349826967424,51.5858011995132
51.5720295,5.0572171,BU08553804,Jagersbuurt West,Buurt,1870,970,1.91625964010283,0.17113665389527458,0,"",Jagersbuurt West,5042,2,5.06349826967424,51.5858011995132
51.5720295,5.0572171,BU08553805,Jagersbuurt Oost,Buurt,2140,1070,1.98873801916933,5.6910569105691054E-2,0,"",Jagersbuurt Oost,5042,2,5.06349826967424,51.5858011995132
51.5720295,5.0572171,BU08553806,Luchthavenbuurt West,Buurt,1890,750,1.7122410546139399,6.3520871143375679E-2,0,"",Luchthavenbuurt West,5042,2,5.06349826967424,51.5858011995132
51.5720295,5.0572171,BU08553807,Luchthavenbuurt Oost,Buurt,2750,790,2.0643157894736799,5.2854122621564484E-2,0,"",Luchthavenbuurt Oost,5042,2,5.06349826967424,51.5858011995132
51.5720295,5.0572171,BU08553808,Westermarkt,Buurt,2610,1240,1.9508321775312101,2.1069692058346839E-2,0,"",Westermarkt,5042,2,5.06349826967424,51.5858011995132
51.5720295,5.0572171,BU08553809,Tiendschuur,Buurt,1890,750,1.8873349339735901,"",0,"",Tiendschuur,5042,2,5.06349826967424,51.5858011995132
51.5720295,5.0572171,BU08553810,Vijverlaan,Buurt,"","",2.27977528089888,0.4777777777777778,0,"",Vijverlaan,5042,2,5.06349826967424,51.5858011995132
51.5720295,5.0572171,BU08553811,Station Universiteit,Buurt,2220,1380,2.2218446601941699,7.3298429319371722E-2,0,"",Station Universiteit,5042,2,5.06349826967424,51.5858011995132
51.5720295,5.0572171,BU08553812,Bokhamer West,Buurt,1920,1200,2.0835051546391798,"",33.333333333333336,"",Bokhamer West,5042,2,5.06349826967424,51.5858011995132
51.5720295,5.0572171,BU08553813,Bokhamer,Buurt,1990,1140,1.95714285714286,0.125,0,"",Bokhamer,5042,2,5.06349826967424,51.5858011995132
51.5720295,5.0572171,BU08553814,Rooi Pannen,Buurt,2340,790,1.2732323232323199,"",21.05263157894737,"",Rooi Pannen,5042,2,5.06349826967424,51.5858011995132
51.6012352,5.0527851,BU08555902,Buitengebied Kraaiven Oost,Buurt,"","",1.7,"",0,"",Buitengebied Kraaiven Oost,5048,2,5.06349826967424,51.5858011995132
51.6012352,5.0527851,BU08555904,Bedrijventerrein Kraaiven,Buurt,"","",1.9733333333333301,"",0.16198704103671707,"",Bedrijventerrein Kraaiven,5048,2,5.06349826967424,51.5858011995132
51.6012352,5.0527851,BU08556003,Bedrijventerrein Vossenberg Scheg,Buurt,"","",1.3,"",28.571428571428569,"",Bedrijventerrein Vossenberg Scheg,5048,2,5.06349826967424,51.5858011995132
51.5924095,5.073913,BU08554201,Stokhasselt Noord-West,Buurt,1890,80,1.7278723404255301,4.2194092827004218E-2,0,"",Stokhasselt Noord-West,5049,2,5.06349826967424,51.5858011995132
51.5924095,5.073913,BU08554202,Stokhasselt Noord-Oost,Buurt,2440,270,1.6285472972973001,3.3936651583710405E-2,0,"",Stokhasselt Noord-Oost,5049,2,5.06349826967424,51.5858011995132
51.5924095,5.073913,BU08554203,Stokhasselt West,Buurt,1990,80,1.6320754716981101,7.0422535211267609E-2,0,"",Stokhasselt West,5049,2,5.06349826967424,51.5858011995132
51.5924095,5.073913,BU08554204,Stokhasselt Oost,Buurt,2220,280,1.74153515064562,"",0,"",Stokhasselt Oost,5049,2,5.06349826967424,51.5858011995132
51.5924095,5.073913,BU08554205,Stokhasselt Zuid-West,Buurt,1890,40,1.46117647058824,"",0,"",Stokhasselt Zuid-West,5049,2,5.06349826967424,51.5858011995132
51.5924095,5.073913,BU08554206,Stokhasselt Zuid-Oost,Buurt,2970,310,1.6566815144766101,5.8165548098434001E-2,4.166666666666667,"",Stokhasselt Zuid-Oost,5049,2,5.06349826967424,51.5858011995132
51.5924095,5.073913,BU08554207,Stokhasselt Zuid,Buurt,"","",1.81823899371069,0.39622641509433965,0,"",Stokhasselt Zuid,5049,2,5.06349826967424,51.5858011995132
51.5854530136,5.09437017432,WK085543,Heikant,Wijk,2200,330,1.6939513849632599,0.12777777777777777,3.0270270270270272,1051.4265423879272,Heikant,5011,3,5.09908170414621,51.5898545736775
51.5779071923,5.09775808166,WK085544,Quirijnstok,Wijk,2350,970,1.574391455539,0.25711159737417943,3.9702233250620345,1950.3852398523986,Quirijnstok,5012,3,5.09908170414621,51.5898545736775
51.59924198,5.100406187,WK085564,Buitengebied Tilburg Noord-Oost,Wijk,4490,1920,2.0201149425287399,0.2857142857142857,12.121212121212121,71529.440000000002,Buitengebied Tilburg Noord-Oost,5012,3,5.09908170414621,51.5898545736775
51.5968067,5.0942092,BU08554301,Heikant Noord-West,Buurt,2390,250,1.4639682539682499,6.6666666666666666E-2,3.5714285714285712,"",Heikant Noord-West,5011,3,5.09908170414621,51.5898545736775
51.5968067,5.0942092,BU08554302,Heikant Noord-Oost,Buurt,2160,160,1.66187214611872,"",0,"",Heikant Noord-Oost,5011,3,5.09908170414621,51.5898545736775
51.5968067,5.0942092,BU08554303,Heikant West,Buurt,2360,420,1.6383360522022801,0.16485225505443235,0,"",Heikant West,5011,3,5.09908170414621,51.5898545736775
51.5968067,5.0942092,BU08554304,Heikant Oost,Buurt,3100,2080,1.80694183864916,0.26419213973799127,6.1068702290076331,"",Heikant Oost,5011,3,5.09908170414621,51.5898545736775
51.5968067,5.0942092,BU08554305,Heikant Zuid-West,Buurt,2060,130,1.76992805755396,7.6589595375722547E-2,0,"",Heikant Zuid-West,5011,3,5.09908170414621,51.5898545736775
51.5968067,5.0942092,BU08554306,Heikant Zuid-Oost,Buurt,2110,390,1.59512067156348,0.18927789934354486,0,"",Heikant Zuid-Oost,5011,3,5.09908170414621,51.5898545736775
51.5968067,5.0942092,BU08554307,Lijnse Hoek West,Buurt,2300,160,1.76213483146067,0.13258426966292136,4.5454545454545459,"",Lijnse Hoek West,5011,3,5.09908170414621,51.5898545736775
51.5968067,5.0942092,BU08554308,Lijnse Hoek Oost,Buurt,1980,1060,1.8984684684684701,"",8,"",Lijnse Hoek Oost,5011,3,5.09908170414621,51.5898545736775
51.5968067,5.0942092,BU08556401,Buitengebied Noord-Oost,Buurt,"","",1.84,"",0,"",Buitengebied Noord-Oost,5011,3,5.09908170414621,51.5898545736775
51.5968067,5.0942092,BU08556402,Rugdijk-Hazennest,Buurt,"","",2.1855555555555601,"",20,"",Rugdijk-Hazennest,5011,3,5.09908170414621,51.5898545736775
51.5910118,5.1061454,BU08554401,Quirijnstok Noord-West,Buurt,2650,1380,1.74874686716792,0.11528822055137844,0,"",Quirijnstok Noord-West,5012,3,5.09908170414621,51.5898545736775
51.5910118,5.1061454,BU08554402,Quirijnstok Noord-Oost,Buurt,2570,1100,1.43523391812866,8.797653958944282E-2,0,"",Quirijnstok Noord-Oost,5012,3,5.09908170414621,51.5898545736775
51.5910118,5.1061454,BU08554403,Quirijnstok West,Buurt,2050,890,1.66926677067083,0.32710280373831774,2.877697841726619,"",Quirijnstok West,5012,3,5.09908170414621,51.5898545736775
51.5910118,5.1061454,BU08554404,Quirijnstok Zuid-West,Buurt,2040,900,1.08165938864629,1.7272727272727273,52.173913043478258,"",Quirijnstok Zuid-West,5012,3,5.09908170414621,51.5898545736775
51.5910118,5.1061454,BU08554405,Quirijnstok Zuid-Oost,Buurt,"","",1.6968137254902,0.52450980392156865,0,"",Quirijnstok Zuid-Oost,5012,3,5.09908170414621,51.5898545736775
51.5910118,5.1061454,BU08554406,Quirijnstokpark,Buurt,2070,520,1.6,"",0,"",Quirijnstokpark,5012,3,5.09908170414621,51.5898545736775
51.5910118,5.1061454,BU08556403,Oostkamer West,Buurt,"","",1.8571428571428601,"",0,"",Oostkamer West,5012,3,5.09908170414621,51.5898545736775
51.5776444063,4.99514797102,WK085549,Campenhoef,Wijk,2340,"",1.27695067264574,0.28892889288928891,5.0724637681159424,534.46913696060039,Campenhoef,5045,4,4.99054563504029,51.5855507690245
51.5785223527,5.00537105058,WK085550,Heyhoef,Wijk,2020,"",1.1175999999999999,"",40,488.74535845588235,Heyhoef,5043,4,4.99054563504029,51.5855507690245
51.5866100829,4.9967321176,WK085553,Tuindorp De Kievit,Wijk,2930,"",1.2750235849056599,0.25134737873591378,3.5714285714285716,361.36960740072203,Tuindorp De Kievit,5045,4,4.99054563504029,51.5855507690245
51.5911838943,4.9846088571,WK085554,Leeuwerik,Wijk,3260,"",1.2627118644067801,0.30970149253731344,2.0833333333333335,598.45804365400159,Leeuwerik,5045,4,4.99054563504029,51.5855507690245
51.5893095151,4.97622647601,WK085555,Dalem Noord,Wijk,2930,"",1.25348537005164,0.20017256255392579,2.6315789473684212,376.10031695721079,Dalem Noord,5035,4,4.99054563504029,51.5855507690245
51.5763845644,4.98385312361,WK085556,Dalem Zuid,Wijk,2830,"",1.10532440056417,0.19201121233356691,2.1563342318059298,553.57516046213095,Dalem Zuid,5035,4,4.99054563504029,51.5855507690245
51.5727513331,4.98274880975,WK085557,Koolhoven,Wijk,2570,"",1.02109471094711,0.24124256444150693,4.8309178743961354,871.19546448087431,Koolhoven,5036,4,4.99054563504029,51.5855507690245
51.5820944,5.001093823,WK085551,Heerevelden,Wijk,2990,"",1.47226519337017,0.2753303964757709,1.6064257028112447,487.32291666666669,Heerevelden,5045,4,4.99054563504029,51.5855507690245
51.57919246,4.990418289,WK085552,Dongewijk,Wijk,2370,"",1.2595330739299599,0.21694480102695765,2.030456852791878,592.86347087378635,Dongewijk,5045,4,4.99054563504029,51.5855507690245
51.5860739,4.9754308,BU08555501,Dalem Noord I,Buurt,3160,"",1.2324866310160401,0.17699115044247787,4.2105263157894735,"",Dalem Noord I,5035,4,4.99054563504029,51.5855507690245
51.5860739,4.9754308,BU08555502,Dalem Noord II,Buurt,2590,"",1.2634517766497499,0.2097560975609756,1.9138755980861246,"",Dalem Noord II,5035,4,4.99054563504029,51.5855507690245
51.5860739,4.9754308,BU08555601,Dalem Zuid I,Buurt,2860,"",1.1070116861435699,0.16123778501628663,2.5,"",Dalem Zuid I,5035,4,4.99054563504029,51.5855507690245
51.5860739,4.9754308,BU08555602,Dalem Zuid II,Buurt,2800,"",1.1040903540903499,0.21648216482164823,1.8957345971563981,"",Dalem Zuid II,5035,4,4.99054563504029,51.5855507690245
51.5852542,4.9947348,BU08554701,Moerse Dreef,Buurt,"","","","",0,"",Moerse Dreef,5045,4,4.99054563504029,51.5855507690245
51.5852542,4.9947348,BU08554901,Campenhoef West,Buurt,2200,"",1.0436090225563901,"",4.0816326530612246,"",Campenhoef West,5045,4,4.99054563504029,51.5855507690245
51.5852542,4.9947348,BU08554902,Campenhoef Midden,Buurt,2860,"",1.3916518650088801,0.37456445993031356,5.1948051948051948,"",Campenhoef Midden,5045,4,4.99054563504029,51.5855507690245
51.5852542,4.9947348,BU08554903,Campenhoef Oost,Buurt,2180,"",1.2681818181818201,"",5.4794520547945202,"",Campenhoef Oost,5045,4,4.99054563504029,51.5855507690245
51.5852542,4.9947348,BU08555101,Heerevelden West,Buurt,3020,"",1.41328451882845,0.23700623700623702,3.3613445378151261,"",Heerevelden West,5045,4,4.99054563504029,51.5855507690245
51.5852542,4.9947348,BU08555102,Heerevelden Oost,Buurt,2630,"",1.53829039812646,0.31615925058548011,0,"",Heerevelden Oost,5045,4,4.99054563504029,51.5855507690245
51.5852542,4.9947348,BU08555201,Dongewijk Noord,Buurt,2990,"",1.2740540540540499,0.23843416370106763,0,"",Dongewijk Noord,5045,4,4.99054563504029,51.5855507690245
51.5852542,4.9947348,BU08555202,Dongewijk Zuid,Buurt,1930,"",1.2222222222222201,0.16129032258064516,8.8888888888888893,"",Dongewijk Zuid,5045,4,4.99054563504029,51.5855507690245
51.5852542,4.9947348,BU08555301,De Kievit Noord-West,Buurt,3100,"",1.2490924092409199,0.18909090909090909,4.4692737430167595,"",De Kievit Noord-West,5045,4,4.99054563504029,51.5855507690245
51.5852542,4.9947348,BU08555302,De Kievit Noord-Oost,Buurt,2780,"",1.2349829351535799,0.29384615384615387,2.6490066225165565,"",De Kievit Noord-Oost,5045,4,4.99054563504029,51.5855507690245
51.5852542,4.9947348,BU08555303,De Kievit Zuid-West,Buurt,2390,"",1.2848797250859101,0.1875,2.9850746268656714,"",De Kievit Zuid-West,5045,4,4.99054563504029,51.5855507690245
51.5852542,4.9947348,BU08555304,De Kievit Zuid-Oost,Buurt,3730,"",1.3716763005780299,0.36231884057971014,4.166666666666667,"",De Kievit Zuid-Oost,5045,4,4.99054563504029,51.5855507690245
51.5852542,4.9947348,BU08555401,Lange Rekken,Buurt,"","",1.3,"","","",Lange Rekken,5045,4,4.99054563504029,51.5855507690245
51.5852542,4.9947348,BU08555402,Reeshofweide,Buurt,"","","","",0,"",Reeshofweide,5045,4,4.99054563504029,51.5855507690245
51.5852542,4.9947348,BU08555404,Leeuwerik West,Buurt,2990,"",1.2050909090909101,0.30545454545454548,2.7777777777777777,"",Leeuwerik West,5045,4,4.99054563504029,51.5855507690245
51.5852542,4.9947348,BU08555405,Leeuwerik Midden,Buurt,3750,"",1.25565819861432,0.28297872340425534,3.1007751937984493,"",Leeuwerik Midden,5045,4,4.99054563504029,51.5855507690245
51.5852542,4.9947348,BU08555406,Leeuwerik Oost,Buurt,3220,"",1.34206049149338,0.2776735459662289,0,"",Leeuwerik Oost,5045,4,4.99054563504029,51.5855507690245
51.5852542,4.9947348,BU08555407,Leeuwerik Zuid,Buurt,3590,"",1.2495471014492801,0.3651877133105802,2.5,"",Leeuwerik Zuid,5045,4,4.99054563504029,51.5855507690245
51.6009611,4.9975554,BU08555903,Bedrijventerrein Kraaiven West,Buurt,"","",1.87,"",0,"",Bedrijventerrein Kraaiven West,5047,4,4.99054563504029,51.5855507690245
51.6009611,4.9975554,BU08556001,Bedrijventerrein Vossenberg West II,Buurt,"","",2.7,"",200,"",Bedrijventerrein Vossenberg West II,5047,4,4.99054563504029,51.5855507690245
51.6009611,4.9975554,BU08556002,Bedrijventerrein Vossenberg West I,Buurt,"","","","",213.33333333333334,"",Bedrijventerrein Vossenberg West I,5047,4,4.99054563504029,51.5855507690245
51.6009611,4.9975554,BU08556004,Bedrijventerrein Vossenberg,Buurt,"","",1.7666666666666699,"",46.153846153846153,"",Bedrijventerrein Vossenberg,5047,4,4.99054563504029,51.5855507690245
51.6009611,4.9975554,BU08556006,Bedrijventerrein Vossenberg PDV,Buurt,"","","","",200,"",Bedrijventerrein Vossenberg PDV,5047,4,4.99054563504029,51.5855507690245
51.6009611,4.9975554,BU08556007,Bedrijventerrein Albion,Buurt,"","",2.0249999999999999,"",0,"",Bedrijventerrein Albion,5047,4,4.99054563504029,51.5855507690245
51.6009611,4.9975554,BU08556501,Buitengebied Noord-West,Buurt,"","",1.721875,0.7857142857142857,0,"",Buitengebied Noord-West,5047,4,4.99054563504029,51.5855507690245
51.5559845202,5.09401973218,WK085511,Hoogvenne,Wijk,2210,930,1.8745969125214399,8.9930555555555555E-2,13.502109704641349,2830.5056313993173,Hoogvenne,5017,5,5.10414076585731,51.5456040094231
51.5491700467,5.09985946676,WK085514,Fatima,Wijk,2610,1290,2.1107747395833298,0.2505307855626327,2.807017543859649,1729.6697108066971,Fatima,5021,5,5.10414076585731,51.5456040094231
51.5410491967,5.09738492186,WK085532,Groenewoud,Wijk,2540,1070,1.76069682151589,0.28390092879256967,4.3624161073825505,3042.6215487449531,Groenewoud,5022,5,5.10414076585731,51.5456040094231
51.5483867,5.0944075,WK085515,Broekhoven,Wijk,2180,1040,1.84668332576102,4.7821969696969696E-2,5.0314465408805029,1928.1459523809524,Broekhoven,5021,5,5.10414076585731,51.5456040094231
51.54501773,5.108756817,WK085531,De Leij,Wijk,"","",1.26344743276284,3.1707317073170732E-2,43.835616438356162,30757.410377586508,De Leij,5022,5,5.10414076585731,51.5456040094231
51.53948282,5.126414369,WK085562,Buitengebied Tilburg Zuid-Oost,Wijk,"","",2.2166666666666699,0.7,0,253931.22186731317,Buitengebied Tilburg Zuid-Oost,5018,5,5.10414076585731,51.5456040094231
51.5557597,5.0980573,BU08551102,Tivoli,Buurt,1950,930,1.9999400479616301,0.11180904522613065,22.695035460992909,"",Tivoli,5017,5,5.10414076585731,51.5456040094231
51.5557597,5.0980573,BU08551103,Hoogvenne Oost,Buurt,2360,830,1.6404847396768401,0.10649819494584838,3.7383177570093458,"",Hoogvenne Oost,5017,5,5.10414076585731,51.5456040094231
51.5557597,5.0980573,BU08551104,Hoogvenne West,Buurt,2330,1040,1.83211883408072,0.10509554140127389,10.19108280254777,"",Hoogvenne West,5017,5,5.10414076585731,51.5456040094231
51.5557597,5.0980573,BU08551105,Piushaven,Buurt,2210,890,1.9909565217391301,2.0905923344947737E-2,5.8823529411764701,"",Piushaven,5017,5,5.10414076585731,51.5456040094231
51.5557597,5.0980573,BU08551403,Fatima Noord,Buurt,"","",2.3043478260869601,"",0,"",Fatima Noord,5017,5,5.10414076585731,51.5456040094231
51.5557597,5.0980573,BU08551405,Hoevenseweg,Buurt,3740,1550,1.4909090909090901,1.984,8.1632653061224492,"",Hoevenseweg,5017,5,5.10414076585731,51.5456040094231
51.5481922,5.0901823,BU08551401,Fatima West,Buurt,2610,1570,2.4385985748218499,0.10630841121495327,2.2857142857142856,"",Fatima West,5021,5,5.10414076585731,51.5456040094231
51.5481922,5.0901823,BU08551402,Fatima Oost,Buurt,2490,1110,1.7756818181818199,"",0,"",Fatima Oost,5021,5,5.10414076585731,51.5456040094231
51.5481922,5.0901823,BU08551404,Bedrijventerrein AaBe,Buurt,"","",2.41363636363636,"","","",Bedrijventerrein AaBe,5021,5,5.10414076585731,51.5456040094231
51.5481922,5.0901823,BU08551501,Broekhoven I West,Buurt,2930,1760,2.1684210526315799,"",0,"",Broekhoven I West,5021,5,5.10414076585731,51.5456040094231
51.5481922,5.0901823,BU08551502,Broekhoven I,Buurt,2230,940,1.7110303030303,8.9420654911838787E-2,3.1746031746031744,"",Broekhoven I,5021,5,5.10414076585731,51.5456040094231
51.5481922,5.0901823,BU08551503,Voltterrein,Buurt,2360,1180,1.70285087719298,"",9.0909090909090917,"",Voltterrein,5021,5,5.10414076585731,51.5456040094231
51.5481922,5.0901823,BU08551504,Broekhoven II West,Buurt,2020,1050,1.88651933701657,1.3398294762484775E-2,7.9207920792079207,"",Broekhoven II West,5021,5,5.10414076585731,51.5456040094231
51.5481922,5.0901823,BU08551505,Broekhoven II Oost,Buurt,2770,1530,2.3743243243243199,"",0,"",Broekhoven II Oost,5021,5,5.10414076585731,51.5456040094231
51.5481922,5.0901823,BU08551603,Afrikaanderbuurt Oost,Buurt,2170,1050,1.95760517799353,2.2292993630573247E-2,4.8192771084337354,"",Afrikaanderbuurt Oost,5021,5,5.10414076585731,51.5456040094231
51.5481922,5.0901823,BU08551604,Zeeheldenbuurt,Buurt,2730,1320,2.0198863636363602,5.3088803088803087E-2,4.5714285714285712,"",Zeeheldenbuurt,5021,5,5.10414076585731,51.5456040094231
51.5481922,5.0901823,BU08551801,Trouwlaan,Buurt,2330,1000,1.72634730538922,1.049317943336831E-2,2.9629629629629628,"",Trouwlaan,5021,5,5.10414076585731,51.5456040094231
51.5386893,5.0965529,BU08553101,Leijpark,Buurt,2550,1020,1.7072289156626499,"",0,"",Leijpark,5022,5,5.10414076585731,51.5456040094231
51.5386893,5.0965529,BU08553103,Elisabethziekenhuis,Buurt,"","",1.61666666666667,"",800,"",Elisabethziekenhuis,5022,5,5.10414076585731,51.5456040094231
51.5386893,5.0965529,BU08553104,Leijhoeven,Buurt,"","",1,"",61.538461538461533,"",Leijhoeven,5022,5,5.10414076585731,51.5456040094231
51.5386893,5.0965529,BU08553201,Ezelvense Akkers,Buurt,2680,900,1.3428571428571401,9.8501070663811557E-2,3.8461538461538458,"",Ezelvense Akkers,5022,5,5.10414076585731,51.5456040094231
51.5386893,5.0965529,BU08553202,Landbouwbuurt,Buurt,2600,1080,1.6312664907651699,"",0,"",Landbouwbuurt,5022,5,5.10414076585731,51.5456040094231
51.5386893,5.0965529,BU08553203,Vogeltjesbuurt West,Buurt,2450,1160,1.8985714285714299,0.94083969465648853,3.773584905660377,"",Vogeltjesbuurt West,5022,5,5.10414076585731,51.5456040094231
51.5386893,5.0965529,BU08553204,Vogeltjesbuurt Oost,Buurt,1890,530,2.1940476190476201,0.16911764705882354,11.320754716981131,"",Vogeltjesbuurt Oost,5022,5,5.10414076585731,51.5456040094231
51.5386893,5.0965529,BU08553205,Visserijbuurt,Buurt,2790,1220,2.0045758928571402,0.16252821670428894,0,"",Visserijbuurt,5022,5,5.10414076585731,51.5456040094231
51.5386893,5.0965529,BU08553206,Groenewoud Oost,Buurt,2510,1080,1.65338164251208,3.2258064516129031E-2,0,"",Groenewoud Oost,5022,5,5.10414076585731,51.5456040094231
51.5386893,5.0965529,BU08553207,Groenewoud Midden,Buurt,2590,1090,1.6717213114754099,0.32686980609418281,0,"",Groenewoud Midden,5022,5,5.10414076585731,51.5456040094231
51.5386893,5.0965529,BU08553208,Groenewoud West,Buurt,2120,1030,1.91365979381443,"",0,"",Groenewoud West,5022,5,5.10414076585731,51.5456040094231
51.5386893,5.0965529,BU08553209,Groenewoud Zuid,Buurt,"","",1.5166666666666699,"",1200,"",Groenewoud Zuid,5022,5,5.10414076585731,51.5456040094231
51.5386893,5.0965529,BU08553301,Stappegoor Noord,Buurt,"","",1.77264150943396,"",733.33333333333337,"",Stappegoor Noord,5022,5,5.10414076585731,51.5456040094231
51.5386893,5.0965529,BU08553302,Zuiderpark,Buurt,"","",1.20198412698413,"",600,"",Zuiderpark,5022,5,5.10414076585731,51.5456040094231
51.544556014,5.05902347411,WK085517,Korvel,Wijk,2350,1220,2.0785590277777799,6.7247386759581876E-2,4.9549549549549541,2149.3017513134851,Korvel,5025,6,5.05851849741347,51.5459763266863
51.5505570693,5.06961108122,WK085519,Sint Anna,Wijk,2490,1210,2.1908532176428102,0.10042432814710042,4.7393364928909953,2051.8102141680397,Sint Anna,5025,6,5.05851849741347,51.5459763266863
51.5491826606,5.04589397407,WK085535,De Blaak,Wijk,3030,1400,1.5452156057494899,0.39005343197698317,2.4653312788906008,2847.0139767054907,De Blaak,5032,6,5.05851849741347,51.5459763266863
51.5540287999,5.05556055033,WK085536,Zorgvlied,Wijk,2160,1210,2.0130320699708499,0.20382165605095542,8.3333333333333339,2720.7699115044247,Zorgvlied,5037,6,5.05851849741347,51.5459763266863
51.5585688568,5.05733449141,WK085537,De Reit,Wijk,1930,680,1.7377477477477501,8.5598250546704155E-2,10.454545454545453,2699.3734208367514,De Reit,5037,6,5.05851849741347,51.5459763266863
51.54669663,5.076931393,WK085516,Oerle,Wijk,2250,1100,1.9213984425697599,6.8479685452162514E-2,3.4334763948497855,1747.4516693163753,Oerle,5021,6,5.05851849741347,51.5459763266863
51.54961616,5.075907747,WK085518,Trouwlaan - Uitvindersbuurt,Wijk,2300,1000,1.72881355932203,1.9267822736030827E-2,2.7491408934707904,1410.8455089820359,Trouwlaan - Uitvindersbuurt,5025,6,5.05851849741347,51.5459763266863
51.54023444,5.073626986,WK085533,Stappegoor,Wijk,"","",1.2624309392265201,0.14285714285714285,180.64516129032259,56360.810587859167,Stappegoor,5022,6,5.05851849741347,51.5459763266863
51.54137454,5.056718331,WK085534,Bedrijventerrein Het Laar,Wijk,"","",1.74390243902439,0.41463414634146339,44.776119402985074,81410.92,Bedrijventerrein Het Laar,5026,6,5.05851849741347,51.5459763266863
51.53547447,5.039291619,WK085561,De Katsbogten,Wijk,"","",2.1166666666666698,"",83.333333333333343,995978.46666666667,De Katsbogten,5032,6,5.05851849741347,51.5459763266863
51.5502665,5.0727202,BU08551601,Afrikaanderbuurt West,Buurt,2370,1000,1.5874277456647401,0.1751592356687898,0,"",Afrikaanderbuurt West,5025,6,5.05851849741347,51.5459763266863
51.5502665,5.0727202,BU08551602,Afrikaanderbuurt Midden,Buurt,1910,980,1.91120527306968,7.9143389199255121E-2,2.6666666666666665,"",Afrikaanderbuurt Midden,5025,6,5.05851849741347,51.5459763266863
51.5502665,5.0727202,BU08551702,Westend,Buurt,2610,1590,2.3435294117647101,0.18279569892473119,0,"",Westend,5025,6,5.05851849741347,51.5459763266863
51.5502665,5.0727202,BU08551703,Schildersbuurt Noord,Buurt,2600,1350,2.0935960591132998,"",0,"",Schildersbuurt Noord,5025,6,5.05851849741347,51.5459763266863
51.5502665,5.0727202,BU08551704,Schildersbuurt Zuid,Buurt,2850,1640,2.4496368038740899,7.6142131979695438E-2,0,"",Schildersbuurt Zuid,5025,6,5.05851849741347,51.5459763266863
51.5502665,5.0727202,BU08551705,Schrijversbuurt,Buurt,2390,1370,2.3166972477064198,"",14,"",Schrijversbuurt,5025,6,5.05851849741347,51.5459763266863
51.5502665,5.0727202,BU08551706,Staatsliedenbuurt Oost,Buurt,2260,1150,1.85960591133005,2.6130653266331658E-2,0,"",Staatsliedenbuurt Oost,5025,6,5.05851849741347,51.5459763266863
51.5502665,5.0727202,BU08551707,Het Laar,Buurt,"","",2.0212962962962999,"",0,"",Het Laar,5025,6,5.05851849741347,51.5459763266863
51.5502665,5.0727202,BU08551802,Uitvindersbuurt,Buurt,2270,1000,1.7310160427807499,2.6714158504007122E-2,2.5641025641025639,"",Uitvindersbuurt,5025,6,5.05851849741347,51.5459763266863
51.5502665,5.0727202,BU08551901,Sint Anna Noord,Buurt,2710,1320,2.2796688741721902,0.15984147952443858,4.7244094488188972,"",Sint Anna Noord,5025,6,5.05851849741347,51.5459763266863
51.5502665,5.0727202,BU08551902,Sint Anna Zuid,Buurt,2330,1120,2.08407643312102,3.0441400304414001E-2,4.7619047619047619,"",Sint Anna Zuid,5025,6,5.05851849741347,51.5459763266863
51.5414594,5.06301,BU08553303,Stappegoor Zuid,Buurt,"","",1.1562841530054599,"",0,"",Stappegoor Zuid,5026,6,5.05851849741347,51.5459763266863
51.5414594,5.06301,BU08553401,Bedrijventerrein Het Laar,Buurt,"","","","",54.54545454545454,"",Bedrijventerrein Het Laar,5026,6,5.05851849741347,51.5459763266863
51.5414594,5.06301,BU08553402,Goirleseweg West,Buurt,"","",1.74390243902439,"",0,"",Goirleseweg West,5026,6,5.05851849741347,51.5459763266863
51.5414594,5.06301,BU08556102,Tradepark 58 Noord,Buurt,"","","","",0,"",Tradepark 58 Noord,5026,6,5.05851849741347,51.5459763266863
51.5414594,5.06301,BU08556103,Tradepark 58 Zuid,Buurt,"","","","",36.363636363636367,"",Tradepark 58 Zuid,5026,6,5.05851849741347,51.5459763266863
51.5563314,5.0543649,BU08553601,Friezenlaan,Buurt,2250,1580,1.80408163265306,5.4989816700610997E-2,3.2,"",Friezenlaan,5037,6,5.05851849741347,51.5459763266863
51.5563314,5.0543649,BU08553602,Burgemeestersbuurt,Buurt,1870,1050,2.1911897590361402,0.15703703703703703,18.30985915492958,"",Burgemeestersbuurt,5037,6,5.05851849741347,51.5459763266863
51.5563314,5.0543649,BU08553603,Staatsliedenbuurt West,Buurt,2250,1170,1.9846702317290601,0.38859180035650626,0,"",Staatsliedenbuurt West,5037,6,5.05851849741347,51.5459763266863
51.5563314,5.0543649,BU08553701,Universiteit,Buurt,"","","","",2000,"",Universiteit,5037,6,5.05851849741347,51.5459763266863
51.5563314,5.0543649,BU08553702,Abdij- en Torenbuurt,Buurt,1950,990,2.02370860927152,2.0519835841313269E-2,0,"",Abdij- en Torenbuurt,5037,6,5.05851849741347,51.5459763266863
51.5563314,5.0543649,BU08553703,Universiteit Campus,Buurt,"","",1.0964824120603001,"",22.222222222222221,"",Universiteit Campus,5037,6,5.05851849741347,51.5459763266863
51.5563314,5.0543649,BU08553704,Kastelenbuurt Noord,Buurt,1920,540,1.9025791324736201,0.11674528301886793,8.2191780821917817,"",Kastelenbuurt Noord,5037,6,5.05851849741347,51.5459763266863
51.5563314,5.0543649,BU08553705,Kastelenbuurt Zuid,Buurt,4390,770,1.8178030303030299,0.18354430379746836,0,"",Kastelenbuurt Zuid,5037,6,5.05851849741347,51.5459763266863
51.5563314,5.0543649,BU08553706,Sportweg,Buurt,"","",1.0062913907284801,"",133.33333333333334,"",Sportweg,5037,6,5.05851849741347,51.5459763266863
51.5563314,5.0543649,BU08553707,Notre Dame,Buurt,1820,250,1.8876484560570099,0.15005727376861397,1.7857142857142856,"",Notre Dame,5037,6,5.05851849741347,51.5459763266863
51.5536156148,5.08269188754,WK085510,Binnenstad,Wijk,2080,1000,1.8388264230498901,5.3850025163563159E-2,25.862068965517242,2622.8067953667955,Binnenstad,5038,7,5.08217041623292,51.5643142805744
51.55875914,5.07349927626,WK085520,Noordhoek,Wijk,1860,420,1.8407610558793299,9.365889212827988E-2,3.1620553359683798,1859.4899273104882,Noordhoek,5038,7,5.08217041623292,51.5643142805744
51.5601739655,5.08553093652,WK085521,Spoorzone Zuid,Wijk,1880,350,1.37436159346272,"",16,2640.7326388888887,Spoorzone Zuid,5038,7,5.08217041623292,51.5643142805744
51.5672624465,5.07253241876,WK085522,Bouwmeester,Wijk,2390,1090,2.0067946824224498,6.8115942028985507E-2,8.2539682539682548,1356.7260000000001,Bouwmeester,5041,7,5.08217041623292,51.5643142805744
51.5714120244,5.07378881103,WK085523,De Hasselt,Wijk,2290,710,1.8684496124031,6.1586314152410573E-2,1.8050541516245486,1308.8107142857143,De Hasselt,5046,7,5.08217041623292,51.5643142805744
51.570601158,5.07960858358,WK085524,Het Goirke,Wijk,2380,780,1.7854886267902299,8.528198074277854E-2,4.2440318302387272,1099.2832974137932,Het Goirke,5046,7,5.08217041623292,51.5643142805744
51.5704799373,5.09087794105,WK085525,Groeseind-Hoefstraat,Wijk,2480,1160,1.84747216370749,0.13554987212276215,4.3165467625899288,1041.9299701046339,Groeseind-Hoefstraat,5014,7,5.08217041623292,51.5643142805744
51.5632098153,5.09230285969,WK085526,Loven-Besterd,Wijk,2610,1180,2.0768651231164998,7.9704797047970483E-2,5.2631578947368425,1520.290294627383,Loven-Besterd,5014,7,5.08217041623292,51.5643142805744
51.5640086521,5.08610982608,WK085527,Theresia,Wijk,2440,960,1.75,0.12250128139415685,4.4280442804428048,1744.5562889165628,Theresia,5041,7,5.08217041623292,51.5643142805744
51.5617239477,5.08440368654,WK085528,Spoorzone Noord,Wijk,3560,10,0.65947368421052599,"",33.333333333333336,8155.9662500000004,Spoorzone Noord,5041,7,5.08217041623292,51.5643142805744
51.57222228,5.091424249,WK085529,Kanaalzone,Wijk,2840,1390,2.1270100502512599,0.1,21.56862745098039,10378.839306358381,Kanaalzone,5046,7,5.08217041623292,51.5643142805744
51.5565973,5.0787408,BU08551001,Binnenstad West,Buurt,2030,850,1.8209019091507599,0.11192930780559647,6.3157894736842106,"",Binnenstad West,5038,7,5.08217041623292,51.5643142805744
51.5565973,5.0787408,BU08551002,Binnenstad Oost,Buurt,2160,1090,1.8659759358288801,2.2415039768618944E-2,62.222222222222221,"",Binnenstad Oost,5038,7,5.08217041623292,51.5643142805744
51.5565973,5.0787408,BU08551003,Koningsplein,Buurt,2080,1120,1.7064943253467799,1.4175257731958763E-2,12.371134020618557,"",Koningsplein,5038,7,5.08217041623292,51.5643142805744
51.5565973,5.0787408,BU08551004,Oude Dijk,Buurt,2290,1110,2.0374186550976101,4.3763676148796497E-2,29.26829268292683,"",Oude Dijk,5038,7,5.08217041623292,51.5643142805744
51.5565973,5.0787408,BU08551101,Veemarktkwartier,Buurt,"","",1.8192982456140401,"",400,"",Veemarktkwartier,5038,7,5.08217041623292,51.5643142805744
51.5565973,5.0787408,BU08551701,Kromhoutpark,Buurt,2010,870,1.7246212121212099,0.18181818181818182,15.094339622641508,"",Kromhoutpark,5038,7,5.08217041623292,51.5643142805744
51.5565973,5.0787408,BU08552001,Bomenbuurt West,Buurt,1260,"",1.6738754325259499,6.1771561771561768E-2,0,"",Bomenbuurt West,5038,7,5.08217041623292,51.5643142805744
51.5565973,5.0787408,BU08552002,Bomenbuurt Midden,Buurt,2160,650,2.1037510305028899,0.10481586402266289,5.7803468208092488,"",Bomenbuurt Midden,5038,7,5.08217041623292,51.5643142805744
51.5565973,5.0787408,BU08552003,Bomenbuurt Oost,Buurt,2290,730,1.6324970131421701,0.1124546553808948,6.6666666666666661,"",Bomenbuurt Oost,5038,7,5.08217041623292,51.5643142805744
51.5565973,5.0787408,BU08552101,VGL-terrein,Buurt,1650,50,1.9512931034482801,"",0,"",VGL-terrein,5038,7,5.08217041623292,51.5643142805744
51.5565973,5.0787408,BU08552102,Talentsquare,Buurt,"","",1,"",0,"",Talentsquare,5038,7,5.08217041623292,51.5643142805744
51.5565973,5.0787408,BU08552103,Spoorlaan,Buurt,2480,1170,1.28134920634921,"",63.157894736842103,"",Spoorlaan,5038,7,5.08217041623292,51.5643142805744
51.5644455,5.0801734,BU08552201,Bouwmeestersbuurt Noord,Buurt,2260,1290,2.0522086466165401,8.755760368663594E-2,12.5,"",Bouwmeestersbuurt Noord,5041,7,5.08217041623292,51.5643142805744
51.5644455,5.0801734,BU08552202,Bouwmeestersbuurt Zuid,Buurt,2470,1010,1.9568252326783899,4.6700507614213196E-2,3.8709677419354835,"",Bouwmeestersbuurt Zuid,5041,7,5.08217041623292,51.5643142805744
51.5644455,5.0801734,BU08552701,Theresia West,Buurt,2080,800,1.6599056603773601,6.1855670103092786E-2,7.5471698113207539,"",Theresia West,5041,7,5.08217041623292,51.5643142805744
51.5644455,5.0801734,BU08552702,Theresia Midden,Buurt,2300,920,1.6830837004405299,0.18432203389830509,6.4516129032258069,"",Theresia Midden,5041,7,5.08217041623292,51.5643142805744
51.5644455,5.0801734,BU08552703,Theresia Oost,Buurt,2900,1150,1.9291993720565099,6.623586429725363E-2,0,"",Theresia Oost,5041,7,5.08217041623292,51.5643142805744
51.5644455,5.0801734,BU08552801,Spoorzone Noord-West,Buurt,3560,10,0.65947368421052599,"",0,"",Spoorzone Noord-West,5041,7,5.08217041623292,51.5643142805744
51.5644455,5.0801734,BU08552802,Spoorzone Noord-Oost,Buurt,"","","","",500,"",Spoorzone Noord-Oost,5041,7,5.08217041623292,51.5643142805744
51.5711954,5.0765369,BU08552301,Textielbuurt West,Buurt,2760,1060,1.74920477137177,1.7612524461839529E-2,0,"",Textielbuurt West,5046,7,5.08217041623292,51.5643142805744
51.5711954,5.0765369,BU08552302,Textielbuurt Oost,Buurt,3020,1390,2.0857541899441299,3.2075471698113207E-2,0,"",Textielbuurt Oost,5046,7,5.08217041623292,51.5643142805744
51.5711954,5.0765369,BU08552303,Nassaubuurt,Buurt,1940,1110,2.0977343749999999,5.306799336650083E-2,3.773584905660377,"",Nassaubuurt,5046,7,5.08217041623292,51.5643142805744
51.5711954,5.0765369,BU08552304,Kasteel West,Buurt,2110,240,1.6857070193285899,7.2420634920634927E-2,2.6315789473684212,"",Kasteel West,5046,7,5.08217041623292,51.5643142805744
51.5711954,5.0765369,BU08552305,Kasteel Oost,Buurt,2020,460,1.82606761565836,0.11900532859680284,2.2727272727272729,"",Kasteel Oost,5046,7,5.08217041623292,51.5643142805744
51.5711954,5.0765369,BU08552401,Goirke Noord,Buurt,2330,840,1.48908323281062,2.5563909774436091E-2,3.3898305084745766,"",Goirke Noord,5046,7,5.08217041623292,51.5643142805744
51.5711954,5.0765369,BU08552402,Pastorieklamp West,Buurt,2350,600,1.86984511132623,0.12579762989972654,4.4444444444444446,"",Pastorieklamp West,5046,7,5.08217041623292,51.5643142805744
51.5711954,5.0765369,BU08552403,Pastorieklamp Oost,Buurt,2720,1500,2.09521484375,7.3985680190930783E-2,5,"",Pastorieklamp Oost,5046,7,5.08217041623292,51.5643142805744
51.5711954,5.0765369,BU08552902,Ind.terrein Kanaalzone Noord,Buurt,"","",2.1370689655172401,"",54.545454545454547,"",Ind.terrein Kanaalzone Noord,5046,7,5.08217041623292,51.5643142805744
51.5609222466,5.006711389,WK085563,Buitengebied Tilburg Zuid-West,Wijk,5670,2730,2.2023809523809499,1.0196078431372548,45,61221.001626016259,Buitengebied Tilburg Zuid-West,5036,8,5.00332645516678,51.5619469389221
51.5675178,5.005420079,WK085558,Witbrant,Wijk,2410,"",1.0923805601318,0.6556291390728477,4.844290657439446,1799.6116161616162,Witbrant,5036,8,5.00332645516678,51.5619469389221
51.5505507,5.0047039,BU08553501,De Blaak Noord-West,Buurt,4890,2060,1.4019709543568499,0.43004115226337447,2.8169014084507045,"",De Blaak Noord-West,5032,8,5.00332645516678,51.5619469389221
51.5505507,5.0047039,BU08553502,De Blaak Noord-Oost,Buurt,2910,1210,1.5798482293423299,0.22742474916387959,8.1081081081081088,"",De Blaak Noord-Oost,5032,8,5.00332645516678,51.5619469389221
51.5505507,5.0047039,BU08553503,De Blaak Zuid-West,Buurt,3620,1870,1.5981164383561599,0.51890034364261173,0,"",De Blaak Zuid-West,5032,8,5.00332645516678,51.5619469389221
51.5505507,5.0047039,BU08553504,De Blaak Zuid-Oost,Buurt,2510,1230,1.54969008264463,0.31512605042016806,0,"",De Blaak Zuid-Oost,5032,8,5.00332645516678,51.5619469389221
51.5505507,5.0047039,BU08556101,De Katsbogten,Buurt,"","",2.1166666666666698,"",160,"",De Katsbogten,5032,8,5.00332645516678,51.5619469389221
51.5505507,5.0047039,BU08556301,Wijkevoort,Buurt,"","",2.2666666666666702,"",0,"",Wijkevoort,5032,8,5.00332645516678,51.5619469389221
51.5505507,5.0047039,BU08556302,Buitengebied Gilzerbaan West,Buurt,"","",2.3109090909090901,1.9130434782608696,41.666666666666671,"",Buitengebied Gilzerbaan West,5032,8,5.00332645516678,51.5619469389221
51.5505507,5.0047039,BU08556303,Buitengebied Gilzerbaan Oost,Buurt,"","",2.17741935483871,"",36.363636363636367,"",Buitengebied Gilzerbaan Oost,5032,8,5.00332645516678,51.5619469389221
51.5505507,5.0047039,BU08556304,Amarant Piusoord,Buurt,"","",1.35,"",200,"",Amarant Piusoord,5032,8,5.00332645516678,51.5619469389221
51.5692772,4.9983492,BU08554101,De Oude Warande,Buurt,"","",2.15,"",400,"",De Oude Warande,5036,8,5.00332645516678,51.5619469389221
51.5692772,4.9983492,BU08555701,Koolhoven Noord,Buurt,2440,"",1.0073529411764699,0.12727272727272726,6.1728395061728394,"",Koolhoven Noord,5036,8,5.00332645516678,51.5619469389221
51.5692772,4.9983492,BU08555702,Koolhoven Zuid,Buurt,2570,"",1.0289009497964701,0.26441631504922647,5.3191489361702127,"",Koolhoven Zuid,5036,8,5.00332645516678,51.5619469389221
51.5692772,4.9983492,BU08555703,Koolhoven Buiten,Buurt,3120,"",1,"",0,"",Koolhoven Buiten,5036,8,5.00332645516678,51.5619469389221
51.5692772,4.9983492,BU08555704,Buitengebied Koolhoven,Buurt,"","",2.5499999999999998,"",0,"",Buitengebied Koolhoven,5036,8,5.00332645516678,51.5619469389221
51.5692772,4.9983492,BU08555801,Witbrant West,Buurt,2380,"",1.04868913857678,0.33750000000000002,8.0924855491329488,"",Witbrant West,5036,8,5.00332645516678,51.5619469389221
51.5692772,4.9983492,BU08555802,Witbrant Oost,Buurt,3700,"",1.1356783919597999,1.3115577889447236,0,"",Witbrant Oost,5036,8,5.00332645516678,51.5619469389221
51.5692772,4.9983492,BU08555803,Buitengebied Witbrant,Buurt,"","",2.2766666666666699,"",0,"",Buitengebied Witbrant,5036,8,5.00332645516678,51.5619469389221
51.5756891541,5.0363825204,WK085539,Wandelbos Noord,Wijk,2210,640,1.7435514372163401,0.11359260685406238,0.94117647058823528,1078.5346283783783,Wandelbos Noord,5044,9,5.02640284377369,51.5817969030913
51.5712446632,5.04244214526,WK085540,Wandelbos Zuid,Wijk,1590,210,1.903125,0.21447721179624665,2.7649769585253456,2659.1847222222223,Wandelbos Zuid,5044,9,5.02640284377369,51.5817969030913
51.5811697156,5.01846442149,WK085547,Gesworen Hoek,Wijk,2370,"",1.5533024333719601,0.1593279258400927,1.6574585635359116,622.28698884758364,Gesworen Hoek,5043,9,5.02640284377369,51.5817969030913
51.5769174299,5.00855154079,WK085548,Huibeven,Wijk,2860,"",1.49617721518987,0.18762183235867447,5.691056910569106,659.19990375360919,Huibeven,5043,9,5.02640284377369,51.5817969030913
51.5642887,5.029105073,WK085541,De Oude Warande,Wijk,"","",2.15,"",400,263798.77500000002,De Oude Warande,5036,9,5.02640284377369,51.5817969030913
51.59247402,5.017125041,WK085560,Bedrijventerrein Vossenberg,Wijk,"","",1.9653846153846199,0.34090909090909088,86.206896551724142,132707.15789473685,Bedrijventerrein Vossenberg,5047,9,5.02640284377369,51.5817969030913
51.60422879,5.030244877,WK085565,Buitengebied Tilburg Noord-West,Wijk,"","",1.721875,0.7857142857142857,0,171151.44444444444,Buitengebied Tilburg Noord-West,5047,9,5.02640284377369,51.5817969030913
51.5791964,5.013101,BU08554702,Gesworen Hoek West,Buurt,2500,"",1.5505703422053201,0.16023166023166024,0,"",Gesworen Hoek West,5043,9,5.02640284377369,51.5817969030913
51.5791964,5.013101,BU08554703,Gesworen Hoek Zuid,Buurt,2320,"",1.5834451901566,0.18695652173913044,6.1855670103092786,"",Gesworen Hoek Zuid,5043,9,5.02640284377369,51.5817969030913
51.5791964,5.013101,BU08554704,Gesworen Hoek Oost,Buurt,2330,"",1.53731739707835,0.14171122994652408,0,"",Gesworen Hoek Oost,5043,9,5.02640284377369,51.5817969030913
51.5791964,5.013101,BU08554801,Huibeven West,Buurt,2810,"",1.4469150174621701,0.18991416309012876,5.376344086021505,"",Huibeven West,5043,9,5.02640284377369,51.5817969030913
51.5791964,5.013101,BU08554802,Huibeven Midden,Buurt,2990,"",1.53010309278351,0.20378151260504201,5.8823529411764701,"",Huibeven Midden,5043,9,5.02640284377369,51.5817969030913
51.5791964,5.013101,BU08554803,Huibeven Oost,Buurt,2850,"",1.5371632329635501,0.17236024844720496,5.9171597633136095,"",Huibeven Oost,5043,9,5.02640284377369,51.5817969030913
51.5791964,5.013101,BU08555001,Heyhoef,Buurt,2020,"",1.1175999999999999,"",40,"",Heyhoef,5043,9,5.02640284377369,51.5817969030913
51.5731362,5.0314656,BU08553901,Wandelbos Noord-West,Buurt,"","","","",0,"",Wandelbos Noord-West,5044,9,5.02640284377369,51.5817969030913
51.5731362,5.0314656,BU08553902,Kruidenbuurt West,Buurt,2330,580,1.6025697503671099,9.6916299559471369E-2,3.6036036036036032,"",Kruidenbuurt West,5044,9,5.02640284377369,51.5817969030913
51.5731362,5.0314656,BU08553903,Kruidenbuurt Oost,Buurt,2300,1050,1.8077168367346901,0.15964240102171137,0,"",Kruidenbuurt Oost,5044,9,5.02640284377369,51.5817969030913
51.5731362,5.0314656,BU08553904,Kruidenbuurt Zuid,Buurt,2000,290,1.68170144462279,7.6799999999999993E-2,0,"",Kruidenbuurt Zuid,5044,9,5.02640284377369,51.5817969030913
51.5731362,5.0314656,BU08553905,Kleurenbuurt Noord,Buurt,2170,700,1.8950539568345299,0.11220472440944881,0,"",Kleurenbuurt Noord,5044,9,5.02640284377369,51.5817969030913
51.5731362,5.0314656,BU08554001,Het Wandelbos / Drijflanen,Buurt,"","",1.9272727272727299,1.1818181818181819,0,"",Het Wandelbos / Drijflanen,5044,9,5.02640284377369,51.5817969030913
51.5731362,5.0314656,BU08554002,Auteursbuurt,Buurt,1880,580,1.7192832764505099,0.30338983050847457,4.4444444444444438,"",Auteursbuurt,5044,9,5.02640284377369,51.5817969030913
51.5731362,5.0314656,BU08554003,Kleurenbuurt Zuid,Buurt,1490,100,2.0945535714285701,9.45945945945946E-2,0,"",Kleurenbuurt Zuid,5044,9,5.02640284377369,51.5817969030913
51.5731362,5.0314656,BU08555705,Koolhoven Oost,Buurt,"","",1.0836956521739101,"",0,"",Koolhoven Oost,5044,9,5.02640284377369,51.5817969030913
51.5607970799,5.10661010334,WK085512,Armhoef,Wijk,2730,1420,2.2663617886178899,0.26680455015511895,7,1389.2863636363636,Armhoef,5018,10,5.10914091384503,51.5641142662053
51.55422411,5.110580173,WK085513,Jeruzalem,Wijk,2230,790,1.49387931034483,0.53379953379953382,5.0632911392405058,2402.8840909090909,Jeruzalem,5018,10,5.10914091384503,51.5641142662053
51.55818402,5.119193846,WK085530,Moerenburg,Wijk,"","",2.3568181818181801,"",80,145188.74604773731,Moerenburg,5018,10,5.10914091384503,51.5641142662053
51.57345338,5.111224508,WK085545,Ind.terrein Loven,Wijk,3400,1860,2.2862637362637401,0.15714285714285714,12.371134020618557,19326.70303030303,Ind.terrein Loven,5015,10,5.10914091384503,51.5641142662053
51.56699733,5.119363467,WK085546,Bosscheweg,Wijk,"",2160,1.996875,0.54761904761904767,0,5694.7256410256414,Bosscheweg,5015,10,5.10914091384503,51.5641142662053
51.5695289,5.0997688,BU08552903,Ind.terrein Kanaalzone Noord-Oost,Buurt,"","",2.3703124999999998,"",11.111111111111111,"",Ind.terrein Kanaalzone Noord-Oost,5013,10,5.10914091384503,51.5641142662053
51.5695289,5.0997688,BU08552904,Melis Stokestraat,Buurt,2810,1370,2.2090909090909099,0.11979166666666667,12.5,"",Melis Stokestraat,5013,10,5.10914091384503,51.5641142662053
51.5695289,5.0997688,BU08552905,Ind.terrein Kanaalzone Oost,Buurt,2840,2070,2.2637931034482799,"",36.363636363636367,"",Ind.terrein Kanaalzone Oost,5013,10,5.10914091384503,51.5641142662053
51.5695289,5.0997688,BU08552906,Ind.terrein Kanaalzone Zuid,Buurt,"","",2.3692307692307701,"",0,"",Ind.terrein Kanaalzone Zuid,5013,10,5.10914091384503,51.5641142662053
51.5695289,5.0997688,BU08552907,Kanaalzone Bosscheweg,Buurt,2740,1160,1.7944444444444401,"",0,"",Kanaalzone Bosscheweg,5013,10,5.10914091384503,51.5641142662053
51.5651254,5.0949038,BU08552501,Sint Pieterspark,Buurt,2350,990,1.46322001888574,0.12270531400966184,8.6021505376344081,"",Sint Pieterspark,5014,10,5.10914091384503,51.5641142662053
51.5651254,5.0949038,BU08552502,Hoefstraat Noord,Buurt,3060,1250,1.8686400000000001,9.1317365269461076E-2,1.8867924528301885,"",Hoefstraat Noord,5014,10,5.10914091384503,51.5641142662053
51.5651254,5.0949038,BU08552503,Padua,Buurt,2050,1090,2.0157183499288802,0.10972222222222222,1.8181818181818181,"",Padua,5014,10,5.10914091384503,51.5641142662053
51.5651254,5.0949038,BU08552504,Hoefstraat Zuid,Buurt,2770,1650,2.14172008547009,0.2226950354609929,2.6143790849673203,"",Hoefstraat Zuid,5014,10,5.10914091384503,51.5641142662053
51.5651254,5.0949038,BU08552601,Besterd,Buurt,2560,1010,2.1305115712545701,0.12665862484921592,6.7796610169491531,"",Besterd,5014,10,5.10914091384503,51.5641142662053
51.5651254,5.0949038,BU08552602,Rosmolen,Buurt,2220,1590,2.1462616822429901,0.17391304347826086,28.571428571428569,"",Rosmolen,5014,10,5.10914091384503,51.5641142662053
51.5651254,5.0949038,BU08552603,Loven Noord,Buurt,2250,1140,2.0061488673139198,4.716981132075472E-2,0,"",Loven Noord,5014,10,5.10914091384503,51.5641142662053
51.5651254,5.0949038,BU08552604,Loven Zuid,Buurt,2840,1200,2.0279386712095402,4.0139616055846421E-2,0,"",Loven Zuid,5014,10,5.10914091384503,51.5641142662053
51.5651254,5.0949038,BU08552605,Loven Oost,Buurt,2900,1570,2.1124999999999998,7.6285240464344942E-2,10.638297872340425,"",Loven Oost,5014,10,5.10914091384503,51.5641142662053
51.569517,5.1151924,BU08554501,Ind.terrein Loven Noord,Buurt,"","",1.53076923076923,"",10,"",Ind.terrein Loven Noord,5015,10,5.10914091384503,51.5641142662053
51.569517,5.1151924,BU08554502,Ind.terrein Loven Zuid,Buurt,3410,1910,2.3443786982248498,"",14.035087719298247,"",Ind.terrein Loven Zuid,5015,10,5.10914091384503,51.5641142662053
51.569517,5.1151924,BU08554601,Bosscheweg,Buurt,"",2160,1.996875,0.54761904761904767,0,"",Bosscheweg,5015,10,5.10914091384503,51.5641142662053
51.558772,5.1197113,BU08551201,Armhoef Noord-West,Buurt,2880,1480,2.5354237288135599,0.14465408805031446,12.903225806451614,"",Armhoef Noord-West,5018,10,5.10914091384503,51.5641142662053
51.558772,5.1197113,BU08551202,Armhoef Noord-Oost,Buurt,3060,1800,2.4830223880597,0.12851405622489959,3.4482758620689657,"",Armhoef Noord-Oost,5018,10,5.10914091384503,51.5641142662053
51.558772,5.1197113,BU08551203,Armhoef Zuid,Buurt,2440,1170,1.93990498812352,0.45,5,"",Armhoef Zuid,5018,10,5.10914091384503,51.5641142662053
51.558772,5.1197113,BU08551301,Jeruzalem Noord,Buurt,1600,660,1.4411764705882399,0.9346938775510204,8.695652173913043,"",Jeruzalem Noord,5018,10,5.10914091384503,51.5641142662053
51.558772,5.1197113,BU08551302,Jeruzalem Zuid,Buurt,2830,920,1.56011673151751,"",0,"",Jeruzalem Zuid,5018,10,5.10914091384503,51.5641142662053
51.558772,5.1197113,BU08553001,Moerenburg,Buurt,"","",2.3568181818181801,"",80,"",Moerenburg,5018,10,5.10914091384503,51.5641142662053
51.558772,5.1197113,BU08553102,Koningshoeven,Buurt,2410,1290,2.2421052631578902,"",0,"",Koningshoeven,5018,10,5.10914091384503,51.5641142662053
51.558772,5.1197113,BU08556202,Buitengebied Zuid-Oost,Buurt,"","",2.2166666666666699,"",0,"",Buitengebied Zuid-Oost,5018,10,5.10914091384503,51.5641142662053
